{"type": "FeatureCollection", "features": [ {"type": "Feature", "properties": {"norad_id": 67050, "name": "STARLINK-36078", "group": "last-30-days", "lat": -41.914845256642806, "lon": 52.790634245534186, "alt_km": 315.49643705889684, "timestamp": "2025-12-21T16:47:53.452791+00:00", "meta": {"OBJECT_NAME": "STARLINK-36078", "OBJECT_ID": "2025-294W", "EPOCH": "2025-12-21T12:00:02.000160", "MEAN_MOTION": 15.85696748, "ECCENTRICITY": 0.0002185, "INCLINATION": 43, "RA_OF_ASC_NODE": 128.4724, "ARG_OF_PERICENTER": 270.2834, "MEAN_ANOMALY": 308.5902, "EPHEMERIS_TYPE": 0, "CLASSIFICATION_TYPE": "U", "NORAD_CAT_ID": 67050, "ELEMENT_SET_NO": 999, "REV_AT_EPOCH": 163, "BSTAR": 0.0028286, "MEAN_MOTION_DOT": 0.00775634, "MEAN_MOTION_DDOT": 0}, "tle": {"line1": "1 67050U 25294W   25355.50002315  .00775634  00000+0  28286-2 0  9995", "line2": "2 67050  43.0000 128.4724 0002185 270.2834 308.5902 15.85696748  1633"}}, "geometry": {"type": "Point", "coordinates": [52.790634245534186, -41.914845256642806]}}, {"type": "Feature", "properties": {"norad_id": 67051, "name": "STARLINK-35706", "group": "last-30-days", "lat": -41.42517254772783, "lon": 55.98088475735671, "alt_km": 316.95610731843044, "timestamp": "2025-12-21T16:47:53.452816+00:00", "meta": {"OBJECT_NAME": "STARLINK-35706", "OBJECT_ID": "2025-294X", "EPOCH": "2025-12-21T12:00:02.000160", "MEAN_MOTION": 15.86219946, "ECCENTRICITY": 0.0001509, "INCLINATION": 43.0003, "RA_OF_ASC_NODE": 128.4663, "ARG_OF_PERICENTER": 254.7298, "MEAN_ANOMALY": 326.5401, "EPHEMERIS_TYPE": 0, "CLASSIFICATION_TYPE": "U", "NORAD_CAT_ID": 67051, "ELEMENT_SET_NO": 999, "REV_AT_EPOCH": 171, "BSTAR": -0.0064286, "MEAN_MOTION_DOT": -0.01468088, "MEAN_MOTION_DDOT": 0}, "tle": {"line1": "1 67051U 25294X   25355.50002315 -.01468088  00000+0 -64286-2 0  9991", "line2": "2 67051  43.0003 128.4663 0001509 254.7298 326.5401 15.86219946  1714"}}, "geometry": {"type": "Point", "coordinates": [55.98088475735671, -41.42517254772783]}}, {"type": "Feature", "properties": {"norad_id": 67052, "name": "STARLINK-35720", "group": "last-30-days", "lat": -40.959473045730526, "lon": 58.55276793460352, "alt_km": 317.0092612574381, "timestamp": "2025-12-21T16:47:53.452826+00:00", "meta": {"OBJECT_NAME": "STARLINK-35720", "OBJECT_ID": "2025-294Y", "EPOCH": "2025-12-21T12:00:02.000160", "MEAN_MOTION": 15.86200271, "ECCENTRICITY": 0.0001399, "INCLINATION": 43.0004, "RA_OF_ASC_NODE": 128.4613, "ARG_OF_PERICENTER": 257.159, "MEAN_ANOMALY": 326.117, "EPHEMERIS_TYPE": 0, "CLASSIFICATION_TYPE": "U", "NORAD_CAT_ID": 67052, "ELEMENT_SET_NO": 999, "REV_AT_EPOCH": 170, "BSTAR": -0.006264, "MEAN_MOTION_DOT": -0.01405554, "MEAN_MOTION_DDOT": 0}, "tle": {"line1": "1 67052U 25294Y   25355.50002315 -.01405554  00000+0 -62640-2 0  9993", "line2": "2 67052  43.0004 128.4613 0001399 257.1590 326.1170 15.86200271  1709"}}, "geometry": {"type": "Point", "coordinates": [58.55276793460352, -40.959473045730526]}}, {"type": "Feature", "properties": {"norad_id": 67053, "name": "STARLINK-35739", "group": "last-30-days", "lat": -40.3585343912904, "lon": 61.44238270244308, "alt_km": 317.0050128322782, "timestamp": "2025-12-21T16:47:53.452836+00:00", "meta": {"OBJECT_NAME": "STARLINK-35739", "OBJECT_ID": "2025-294Z", "EPOCH": "2025-12-21T12:00:02.000160", "MEAN_MOTION": 15.86195125, "ECCENTRICITY": 0.0001269, "INCLINATION": 43.0004, "RA_OF_ASC_NODE": 128.4553, "ARG_OF_PERICENTER": 272.8601, "MEAN_ANOMALY": 312.7072, "EPHEMERIS_TYPE": 0, "CLASSIFICATION_TYPE": "U", "NORAD_CAT_ID": 67053, "ELEMENT_SET_NO": 999, "REV_AT_EPOCH": 136, "BSTAR": -0.0063295, "MEAN_MOTION_DOT": -0.01417879, "MEAN_MOTION_DDOT": 0}, "tle": {"line1": "1 67053U 25294Z   25355.50002315 -.01417879  00000+0 -63295-2 0  9994", "line2": "2 67053  43.0004 128.4553 0001269 272.8601 312.7072 15.86195125  1361"}}, "geometry": {"type": "Point", "coordinates": [61.44238270244308, -40.3585343912904]}}, {"type": "Feature", "properties": {"norad_id": 67054, "name": "STARLINK-35754", "group": "last-30-days", "lat": -39.61662933896058, "lon": 64.5544767240024, "alt_km": 316.96993352767004, "timestamp": "2025-12-21T16:47:53.452846+00:00", "meta": {"OBJECT_NAME": "STARLINK-35754", "OBJECT_ID": "2025-294AA", "EPOCH": "2025-12-21T12:00:02.000160", "MEAN_MOTION": 15.86162261, "ECCENTRICITY": 0.0001409, "INCLINATION": 43.0002, "RA_OF_ASC_NODE": 128.4491, "ARG_OF_PERICENTER": 269.4379, "MEAN_ANOMALY": 318.6511, "EPHEMERIS_TYPE": 0, "CLASSIFICATION_TYPE": "U", "NORAD_CAT_ID": 67054, "ELEMENT_SET_NO": 999, "REV_AT_EPOCH": 152, "BSTAR": -0.0061971, "MEAN_MOTION_DOT": -0.01390227, "MEAN_MOTION_DDOT": 0}, "tle": {"line1": "1 67054U 25294AA  25355.50002315 -.01390227  00000+0 -61971-2 0  9991", "line2": "2 67054  43.0002 128.4491 0001409 269.4379 318.6511 15.86162261  1527"}}, "geometry": {"type": "Point", "coordinates": [64.5544767240024, -39.61662933896058]}}, {"type": "Feature", "properties": {"norad_id": 67055, "name": "STARLINK-35790", "group": "last-30-days", "lat": -38.81726018086804, "lon": 67.5129730207374, "alt_km": 317.0047487330039, "timestamp": "2025-12-21T16:47:53.452860+00:00", "meta": {"OBJECT_NAME": "STARLINK-35790", "OBJECT_ID": "2025-294AB", "EPOCH": "2025-12-21T12:00:02.000160", "MEAN_MOTION": 15.86178801, "ECCENTRICITY": 0.000142, "INCLINATION": 43.0002, "RA_OF_ASC_NODE": 128.4425, "ARG_OF_PERICENTER": 266.0992, "MEAN_ANOMALY": 324.4234, "EPHEMERIS_TYPE": 0, "CLASSIFICATION_TYPE": "U", "NORAD_CAT_ID": 67055, "ELEMENT_SET_NO": 999, "REV_AT_EPOCH": 171, "BSTAR": -0.0065107, "MEAN_MOTION_DOT": -0.01481948, "MEAN_MOTION_DDOT": 0}, "tle": {"line1": "1 67055U 25294AB  25355.50002315 -.01481948  00000+0 -65107-2 0  9998", "line2": "2 67055  43.0002 128.4425 0001420 266.0992 324.4234 15.86178801  1717"}}, "geometry": {"type": "Point", "coordinates": [67.5129730207374, -38.81726018086804]}}, {"type": "Feature", "properties": {"norad_id": 67056, "name": "STARLINK-36143", "group": "last-30-days", "lat": -36.44419484726896, "lon": 74.77614164940182, "alt_km": 317.1703482786088, "timestamp": "2025-12-21T16:47:53.452870+00:00", "meta": {"OBJECT_NAME": "STARLINK-36143", "OBJECT_ID": "2025-294AC", "EPOCH": "2025-12-21T12:00:02.000160", "MEAN_MOTION": 15.8618461, "ECCENTRICITY": 9.32e-05, "INCLINATION": 43, "RA_OF_ASC_NODE": 128.4266, "ARG_OF_PERICENTER": 271.5129, "MEAN_ANOMALY": 325.2483, "EPHEMERIS_TYPE": 0, "CLASSIFICATION_TYPE": "U", "NORAD_CAT_ID": 67056, "ELEMENT_SET_NO": 999, "REV_AT_EPOCH": 171, "BSTAR": -0.0064995, "MEAN_MOTION_DOT": -0.01479725, "MEAN_MOTION_DDOT": 0}, "tle": {"line1": "1 67056U 25294AC  25355.50002315 -.01479725  00000+0 -64995-2 0  9993", "line2": "2 67056  43.0000 128.4266 0000932 271.5129 325.2483 15.86184610  1719"}}, "geometry": {"type": "Point", "coordinates": [74.77614164940182, -36.44419484726896]}}, {"type": "Feature", "properties": {"norad_id": 67057, "name": "STARLINK-36141", "group": "last-30-days", "lat": -37.32199209256405, "lon": 72.2971304458955, "alt_km": 316.9702468558444, "timestamp": "2025-12-21T16:47:53.452882+00:00", "meta": {"OBJECT_NAME": "STARLINK-36141", "OBJECT_ID": "2025-294AD", "EPOCH": "2025-12-21T12:00:02.000160", "MEAN_MOTION": 15.86169044, "ECCENTRICITY": 0.0001381, "INCLINATION": 43.0001, "RA_OF_ASC_NODE": 128.4324, "ARG_OF_PERICENTER": 266.4062, "MEAN_ANOMALY": 328.181, "EPHEMERIS_TYPE": 0, "CLASSIFICATION_TYPE": "U", "NORAD_CAT_ID": 67057, "ELEMENT_SET_NO": 999, "REV_AT_EPOCH": 163, "BSTAR": -0.0063307, "MEAN_MOTION_DOT": -0.01416605, "MEAN_MOTION_DDOT": 0}, "tle": {"line1": "1 67057U 25294AD  25355.50002315 -.01416605  00000+0 -63307-2 0  9998", "line2": "2 67057  43.0001 128.4324 0001381 266.4062 328.1810 15.86169044  1635"}}, "geometry": {"type": "Point", "coordinates": [72.2971304458955, -37.32199209256405]}}, {"type": "Feature", "properties": {"norad_id": 67058, "name": "STARLINK-35767", "group": "last-30-days", "lat": -38.07416761977052, "lon": 69.99307655629836, "alt_km": 316.8030517910547, "timestamp": "2025-12-21T16:47:53.452892+00:00", "meta": {"OBJECT_NAME": "STARLINK-35767", "OBJECT_ID": "2025-294AE", "EPOCH": "2025-12-21T12:00:02.000160", "MEAN_MOTION": 15.86197021, "ECCENTRICITY": 0.000161, "INCLINATION": 43.0003, "RA_OF_ASC_NODE": 128.4371, "ARG_OF_PERICENTER": 271.5018, "MEAN_ANOMALY": 321.099, "EPHEMERIS_TYPE": 0, "CLASSIFICATION_TYPE": "U", "NORAD_CAT_ID": 67058, "ELEMENT_SET_NO": 999, "REV_AT_EPOCH": 152, "BSTAR": -0.006629, "MEAN_MOTION_DOT": -0.01507066, "MEAN_MOTION_DDOT": 0}, "tle": {"line1": "1 67058U 25294AE  25355.50002315 -.01507066  00000+0 -66290-2 0  9995", "line2": "2 67058  43.0003 128.4371 0001610 271.5018 321.0990 15.86197021  1528"}}, "geometry": {"type": "Point", "coordinates": [69.99307655629836, -38.07416761977052]}}, {"type": "Feature", "properties": {"norad_id": 67059, "name": "HULIANWANG DIGUI-119", "group": "last-30-days", "lat": 44.04415337776776, "lon": 100.15123855641525, "alt_km": 813.2629230683806, "timestamp": "2025-12-21T16:47:53.452904+00:00", "meta": {"OBJECT_NAME": "HULIANWANG DIGUI-119", "OBJECT_ID": "2025-295A", "EPOCH": "2025-12-21T06:09:35.157888", "MEAN_MOTION": 14.24613784, "ECCENTRICITY": 0.0013985, "INCLINATION": 50.0066, "RA_OF_ASC_NODE": 336.301, "ARG_OF_PERICENTER": 276.3631, "MEAN_ANOMALY": 83.569, "EPHEMERIS_TYPE": 0, "CLASSIFICATION_TYPE": "U", "NORAD_CAT_ID": 67059, "ELEMENT_SET_NO": 999, "REV_AT_EPOCH": 133, "BSTAR": -1.5133e-05, "MEAN_MOTION_DOT": -1.95e-06, "MEAN_MOTION_DDOT": 0}, "tle": {"line1": "1 67059U 25295A   25355.25665692 -.00000195  00000+0 -15133-4 0  9994", "line2": "2 67059  50.0066 336.3010 0013985 276.3631  83.5690 14.24613784  1334"}}, "geometry": {"type": "Point", "coordinates": [100.15123855641525, 44.04415337776776]}}]}